IRIDIUM 119             
1 42959U 17061E   25320.47225297  .00000527  00000+0  18124-3 0  9996
2 42959  86.3947 114.1971 0002014  73.3792 286.7625 14.34215090424320
IRIDIUM 107             
1 42960U 17061F   25320.70058807  .00000479  00000+0  16403-3 0  9999
2 42960  86.3947 114.1210 0001687  87.3474 272.7915 14.34216466424364
IRIDIUM 132             
1 42961U 17061G   25320.70692904  .00000647  00000+0  22406-3 0  9999
2 42961  86.3947 114.0991 0001874  91.5384 268.6026 14.34217035424365
IRIDIUM 136             
1 42962U 17061H   25320.66887282  .00000465  00000+0  15886-3 0  9992
2 42962  86.3945 114.1203 0001931  87.9233 272.2184 14.34214392424377
IRIDIUM 139             
1 42963U 17061J   25320.67521642  .00000401  00000+0  13617-3 0  9999
2 42963  86.3945 114.1761 0001792  91.8437 268.2964 14.34213902424380
IRIDIUM 125             
1 42964U 17061K   25320.45322525  .00000496  00000+0  17017-3 0  9997
2 42964  86.3947 114.3261 0001721  76.1404 283.9984 14.34213928424364
IRIDIUM 135             
1 43070U 17083A   25320.70642841  .00000604  00000+0  20866-3 0  9991
2 43070  86.3986  50.8246 0002129  94.8387 265.3052 14.34212696413698
IRIDIUM 138             
1 43071U 17083B   25320.66202981  .00000394  00000+0  13367-3 0  9998
2 43071  86.4000  50.5058 0002204  84.5675 275.5772 14.34212343413674
